ORBCOMM FM103           
1 40091U 14040F   25336.31658019  .00001051  00000+0  26039-3 0  9994
2 40091  47.0061 303.6168 0002394 316.3545  43.7151 14.58504296588642
ORBCOMM FM114           
1 41179U 15081A   25336.05958186  .00000694  00000+0  18418-3 0  9991
2 41179  47.0016 213.7908 0001873  24.5540 335.5435 14.58537780528978
ORBCOMM FM119           
1 41180U 15081B   25336.46619167  .00001052  00000+0  26073-3 0  9996
2 41180  46.9991 121.2254 0000609 138.8955 221.1977 14.58470465530286
ORBCOMM FM105           
1 41181U 15081C   25336.48540609  .00000375  00000+0  15020-3 0  9990
2 41181  46.9998 142.5171 0001663 338.4570  21.6240 14.45388190525098
ORBCOMM FM110           
1 41182U 15081D   25336.04967973  .00000927  00000+0  23351-3 0  9999
2 41182  47.0008 213.3450 0002633 256.2198 103.8394 14.58604598528847
ORBCOMM FM118           
1 41183U 15081E   25336.35810498  .00000931  00000+0  23473-3 0  9993
2 41183  47.0030 212.1821 0002799 213.9174 146.1533 14.58549857528996
ORBCOMM FM112           
1 41184U 15081F   25336.42933375  .00001330  00000+0  31898-3 0  9996
2 41184  46.9977 120.3848 0000826  15.7716 344.3196 14.58621247530223
ORBCOMM FM113           
1 41185U 15081G   25336.47514525  .00001342  00000+0  32162-3 0  9992
2 41185  46.9995 120.5231 0000490  39.1648 320.9273 14.58612200530217
